ORBCOMM-X               
1 21576U 91050C   25185.63983433  .00000232  00000+0  81614-4 0  9996
2 21576  98.3427 251.8832 0004687 124.0335 236.1301 14.43273103784854
ORBCOMM FM01            
1 23545U 95017A   25185.51839233  .00004091  00000+0  42988-3 0  9993
2 23545  69.9640  30.9127 0005392 274.2787  85.7751 14.90211605615445
ORBCOMM FM02            
1 23546U 95017B   25185.04842148  .00003987  00000+0  41007-3 0  9995
2 23546  69.9652  51.4218 0006781 276.8459  83.1924 14.91095872614973
ORBCOMM FM08            
1 25112U 97084A   25184.69474131  .00000837  00000+0  27399-3 0  9994
2 25112  45.0147 288.6200 0005958 312.4776  47.5571 14.45847909443761
ORBCOMM FM10            
1 25113U 97084B   25185.43844053  .00000855  00000+0  28014-3 0  9997
2 25113  45.0158 287.4600 0005575 279.4790  80.5431 14.45638068444024
ORBCOMM FM11            
1 25114U 97084C   25185.65333066  .00000874  00000+0  28678-3 0  9996
2 25114  45.0144 287.0934 0006276 284.3079  75.7075 14.45387715444031
ORBCOMM FM12            
1 25115U 97084D   25184.57880179  .00000797  00000+0  26506-3 0  9991
2 25115  45.0151 291.9961 0005433 273.9670  86.0560 14.45405860443887
ORBCOMM FM09            
1 25116U 97084E   25184.68165141  .00000792  00000+0  26436-3 0  9996
2 25116  45.0157 292.4522 0006928 269.7101  90.2956 14.45281188443864
